{
  "type": "FeatureCollection",
  "features": [
    {
      "type": "Feature",
      "properties": {
        "norad_id": 67154,
        "name": "KUIPER-00249",
        "group": "last-30-days",
        "lat": 17.125702365141855,
        "lon": 68.69517096043437,
        "alt_km": 462.47617186009484,
        "timestamp": "2025-12-27T08:36:17.081923+00:00",
        "meta_object_name": "KUIPER-00249",
        "meta_object_id": "2025-301X",
        "meta_epoch": "2025-12-27T03:49:16.492224",
        "meta_mean_motion": 15.34855086,
        "meta_eccentricity": 0.0008223,
        "meta_inclination": 51.8659,
        "meta_ra_of_asc_node": 55.6469,
        "meta_arg_of_pericenter": 142.281,
        "meta_mean_anomaly": 217.8753,
        "meta_ephemeris_type": 0,
        "meta_classification_type": "U",
        "meta_norad_cat_id": 67154,
        "meta_element_set_no": 999,
        "meta_rev_at_epoch": 258,
        "meta_bstar": 0.0010059,
        "meta_mean_motion_dot": 0.00034324,
        "meta_mean_motion_ddot": 0,
        "tle_line1": "1 67154U 25301X   25361.15921866  .00034324  00000+0  10059-2 0  9991",
        "tle_line2": "2 67154  51.8659  55.6469 0008223 142.2810 217.8753 15.34855086  2580"
      },
      "geometry": {
        "type": "Point",
        "coordinates": [
          68.69517096043437,
          17.125702365141855
        ]
      }
    },
    {
      "type": "Feature",
      "properties": {
        "norad_id": 67155,
        "name": "KUIPER-00250",
        "group": "last-30-days",
        "lat": 31.381121906910238,
        "lon": 83.27086268810149,
        "alt_km": 455.7721991197068,
        "timestamp": "2025-12-27T08:36:17.081934+00:00",
        "meta_object_name": "KUIPER-00250",
        "meta_object_id": "2025-301Y",
        "meta_epoch": "2025-12-27T03:44:18.698208",
        "meta_mean_motion": 15.35392911,
        "meta_eccentricity": 0.0006214,
        "meta_inclination": 51.8718,
        "meta_ra_of_asc_node": 55.6231,
        "meta_arg_of_pericenter": 131.5399,
        "meta_mean_anomaly": 228.6121,
        "meta_ephemeris_type": 0,
        "meta_classification_type": "U",
        "meta_norad_cat_id": 67155,
        "meta_element_set_no": 999,
        "meta_rev_at_epoch": 261,
        "meta_bstar": 0.00071188,
        "meta_mean_motion_dot": 0.0002456,
        "meta_mean_motion_ddot": 0,
        "tle_line1": "1 67155U 25301Y   25361.15577197  .00024560  00000+0  71188-3 0  9998",
        "tle_line2": "2 67155  51.8718  55.6231 0006214 131.5399 228.6121 15.35392911  2612"
      },
      "geometry": {
        "type": "Point",
        "coordinates": [
          83.27086268810149,
          31.381121906910238
        ]
      }
    },
    {
      "type": "Feature",
      "properties": {
        "norad_id": 67156,
        "name": "KUIPER-00251",
        "group": "last-30-days",
        "lat": 13.762719503303018,
        "lon": 65.79019834223007,
        "alt_km": 463.45649534605127,
        "timestamp": "2025-12-27T08:36:17.081944+00:00",
        "meta_object_name": "KUIPER-00251",
        "meta_object_id": "2025-301Z",
        "meta_epoch": "2025-12-27T03:50:24.653184",
        "meta_mean_motion": 15.3482602,
        "meta_eccentricity": 0.0008803,
        "meta_inclination": 51.8674,
        "meta_ra_of_asc_node": 55.6533,
        "meta_arg_of_pericenter": 139.8307,
        "meta_mean_anomaly": 220.3331,
        "meta_ephemeris_type": 0,
        "meta_classification_type": "U",
        "meta_norad_cat_id": 67156,
        "meta_element_set_no": 999,
        "meta_rev_at_epoch": 277,
        "meta_bstar": 0.0010359,
        "meta_mean_motion_dot": 0.00035337,
        "meta_mean_motion_ddot": 0,
        "tle_line1": "1 67156U 25301Z   25361.16000756  .00035337  00000+0  10359-2 0  9998",
        "tle_line2": "2 67156  51.8674  55.6533 0008803 139.8307 220.3331 15.34826020  2776"
      },
      "geometry": {
        "type": "Point",
        "coordinates": [
          65.79019834223007,
          13.762719503303018
        ]
      }
    },
    {
      "type": "Feature",
      "properties": {
        "norad_id": 67157,
        "name": "KUIPER-00252",
        "group": "last-30-days",
        "lat": 0.23820671306961422,
        "lon": 54.91755299743092,
        "alt_km": 469.4946959105091,
        "timestamp": "2025-12-27T08:36:17.081954+00:00",
        "meta_object_name": "KUIPER-00252",
        "meta_object_id": "2025-301AA",
        "meta_epoch": "2025-12-27T03:54:49.699872",
        "meta_mean_motion": 15.34318402,
        "meta_eccentricity": 0.000979,
        "meta_inclination": 51.866,
        "meta_ra_of_asc_node": 55.6717,
        "meta_arg_of_pericenter": 150.6059,
        "meta_mean_anomaly": 209.5479,
        "meta_ephemeris_type": 0,
        "meta_classification_type": "U",
        "meta_norad_cat_id": 67157,
        "meta_element_set_no": 999,
        "meta_rev_at_epoch": 258,
        "meta_bstar": 0.00076685,
        "meta_mean_motion_dot": 0.00025611,
        "meta_mean_motion_ddot": 0,
        "tle_line1": "1 67157U 25301AA  25361.16307523  .00025611  00000+0  76685-3 0  9990",
        "tle_line2": "2 67157  51.8660  55.6717 0009790 150.6059 209.5479 15.34318402  2588"
      },
      "geometry": {
        "type": "Point",
        "coordinates": [
          54.91755299743092,
          0.23820671306961422
        ]
      }
    },
    {
      "type": "Feature",
      "properties": {
        "norad_id": 67158,
        "name": "KUIPER-00261",
        "group": "last-30-days",
        "lat": 35.45407114452349,
        "lon": 88.6446175583628,
        "alt_km": 454.21983462441676,
        "timestamp": "2025-12-27T08:36:17.081964+00:00",
        "meta_object_name": "KUIPER-00261",
        "meta_object_id": "2025-301AB",
        "meta_epoch": "2025-12-27T03:42:45.242784",
        "meta_mean_motion": 15.35482576,
        "meta_eccentricity": 0.0005838,
        "meta_inclination": 51.8703,
        "meta_ra_of_asc_node": 55.618,
        "meta_arg_of_pericenter": 128.9185,
        "meta_mean_anomaly": 231.2322,
        "meta_ephemeris_type": 0,
        "meta_classification_type": "U",
        "meta_norad_cat_id": 67158,
        "meta_element_set_no": 999,
        "meta_rev_at_epoch": 258,
        "meta_bstar": 0.0013844,
        "meta_mean_motion_dot": 0.00048413,
        "meta_mean_motion_ddot": 0,
        "tle_line1": "1 67158U 25301AB  25361.15469031  .00048413  00000+0  13844-2 0  9995",
        "tle_line2": "2 67158  51.8703  55.6180 0005838 128.9185 231.2322 15.35482576  2582"
      },
      "geometry": {
        "type": "Point",
        "coordinates": [
          88.6446175583628,
          35.45407114452349
        ]
      }
    },
    {
      "type": "Feature",
      "properties": {
        "norad_id": 67159,
        "name": "KUIPER-00265",
        "group": "last-30-days",
        "lat": 51.71633292875518,
        "lon": 138.85187097374734,
        "alt_km": 448.1745075561457,
        "timestamp": "2025-12-27T08:36:17.081976+00:00",
        "meta_object_name": "KUIPER-00265",
        "meta_object_id": "2025-301AC",
        "meta_epoch": "2025-12-27T03:32:49.832736",
        "meta_mean_motion": 15.36459912,
        "meta_eccentricity": 0.000193,
        "meta_inclination": 51.874,
        "meta_ra_of_asc_node": 55.569,
        "meta_arg_of_pericenter": 97.0714,
        "meta_mean_anomaly": 263.0491,
        "meta_ephemeris_type": 0,
        "meta_classification_type": "U",
        "meta_norad_cat_id": 67159,
        "meta_element_set_no": 999,
        "meta_rev_at_epoch": 261,
        "meta_bstar": 0.00070821,
        "meta_mean_motion_dot": 0.00025282,
        "meta_mean_motion_ddot": 0,
        "tle_line1": "1 67159U 25301AC  25361.14779899  .00025282  00000+0  70821-3 0  9999",
        "tle_line2": "2 67159  51.8740  55.5690 0001930  97.0714 263.0491 15.36459912  2615"
      },
      "geometry": {
        "type": "Point",
        "coordinates": [
          138.85187097374734,
          51.71633292875518
        ]
      }
    },
    {
      "type": "Feature",
      "properties": {
        "norad_id": 67160,
        "name": "GALILEO A",
        "group": "last-30-days",
        "lat": -20.395034993956006,
        "lon": 91.46444493262085,
        "alt_km": 22949.632519481416,
        "timestamp": "2025-12-27T08:36:17.081987+00:00",
        "meta_object_name": "GALILEO A",
        "meta_object_id": "2025-302A",
        "meta_epoch": "2025-12-18T03:30:19.486368",
        "meta_mean_motion": 1.72906186,
        "meta_eccentricity": 0.00084238,
        "meta_inclination": 54.2406,
        "meta_ra_of_asc_node": 107.2544,
        "meta_arg_of_pericenter": 237.6458,
        "meta_mean_anomaly": 122.2317,
        "meta_ephemeris_type": 0,
        "meta_classification_type": "U",
        "meta_norad_cat_id": 67160,
        "meta_element_set_no": 999,
        "meta_rev_at_epoch": 2,
        "meta_bstar": 0,
        "meta_mean_motion_dot": -7e-08,
        "meta_mean_motion_ddot": 0,
        "tle_line1": "1 67160U 25302A   25352.14605887 -.00000007  00000+0  00000+0 0  9994",
        "tle_line2": "2 67160  54.2406 107.2544 0008423 237.6458 122.2317  1.72906186    28"
      },
      "geometry": {
        "type": "Point",
        "coordinates": [
          91.46444493262085,
          -20.395034993956006
        ]
      }
    }
  ]
}